SENTINEL-6              
1 46984U 20086A   23224.73862856 -.00000073  00000+0 -50723-4 0  9997
2 46984  66.0413 133.9997 0007940 268.8707  91.1399 12.80928894127320
